COSMOS 2251 DEB         
1 34576U 93036VN  17345.26340339  .00000374  00000-0  12064-3 0  9996
2 34576  74.0381 188.4360 0009852 309.9769 171.0562 14.42546862462216
